start=new Date('2023-05-09T00:00:00.000Z').valueOf();
sats=[{"CENTER_NAME":"EARTH","EPHEMERIS_TYPE":"0","COUNTRY_CODE":"US","CLASSIFICATION_TYPE":"U","SEMIMAJOR_AXIS":"6917.870","EPOCH":"2023-05-08T09:19:49.967328","INCLINATION":"53.2153","OBJECT_TYPE":"PAYLOAD","TLE_LINE2":"2 52344  53.2153 171.3214 0001036  86.8245 273.2866 15.08843283 59337","MEAN_ELEMENT_THEORY":"SGP4","LAUNCH_DATE":"2022-04-29","TIME_SYSTEM":"UTC","ELEMENT_SET_NO":"999","MEAN_ANOMALY":"273.2866","MEAN_MOTION_DOT":"0.00000622","FILE":"3904305","APOAPSIS":"540.452","DECAY_DATE":null,"TLE_LINE1":"1 52344U 22045P   23128.38877277  .00000622  00000-0  57137-4 0  9993","PERIAPSIS":"539.019","GP_ID":"231475188","REF_FRAME":"TEME","PERIOD":"95.437","RCS_SIZE":"LARGE","OBJECT_ID":"2022-045P","REV_AT_EPOCH":"5933","MEAN_MOTION":"15.08843283","NORAD_CAT_ID":"52344","ARG_OF_PERICENTER":"86.8245","SITE":"AFETR","ECCENTRICITY":"0.00010360","BSTAR":"0.00005713700000","RA_OF_ASC_NODE":"171.3214","OBJECT_NAME":"STARLINK-3851","MEAN_MOTION_DDOT":"0.0000000000000"},{"CENTER_NAME":"EARTH","EPHEMERIS_TYPE":"0","COUNTRY_CODE":"US","CLASSIFICATION_TYPE":"U","SEMIMAJOR_AXIS":"6917.897","EPOCH":"2023-05-08T11:11:06.288000","INCLINATION":"53.2144","OBJECT_TYPE":"PAYLOAD","TLE_LINE2":"2 52345  53.2144 170.9092 0001234  84.5473 275.5660 15.08834585 59337","LAUNCH_DATE":"2022-04-29","MEAN_ELEMENT_THEORY":"SGP4","TIME_SYSTEM":"UTC","ELEMENT_SET_NO":"999","MEAN_ANOMALY":"275.5660","MEAN_MOTION_DOT":"-0.00001215","FILE":"3903991","APOAPSIS":"540.616","DECAY_DATE":null,"TLE_LINE1":"1 52345U 22045Q   23128.46604500 -.00001215  00000-0 -58282-4 0  9993","GP_ID":"231446906","PERIAPSIS":"538.908","REF_FRAME":"TEME","RCS_SIZE":"LARGE","PERIOD":"95.438","OBJECT_ID":"2022-045Q","REV_AT_EPOCH":"5933","MEAN_MOTION":"15.08834585","NORAD_CAT_ID":"52345","SITE":"AFETR","ARG_OF_PERICENTER":"84.5473","ECCENTRICITY":"0.00012340","BSTAR":"-0.00005828200000","RA_OF_ASC_NODE":"170.9092","OBJECT_NAME":"STARLINK-3852","MEAN_MOTION_DDOT":"0.0000000000000"},{"TLE_LINE2":"2 52346  53.2153 169.2106 0001291  95.9749 264.1390 15.08839682 59405","LAUNCH_DATE":"2022-04-29","MEAN_ANOMALY":"264.1390","MEAN_ELEMENT_THEORY":"SGP4","TIME_SYSTEM":"UTC","ELEMENT_SET_NO":"999","FILE":"3904305","MEAN_MOTION_DOT":"0.00000770","EPHEMERIS_TYPE":"0","CENTER_NAME":"EARTH","SEMIMAJOR_AXIS":"6917.881","COUNTRY_CODE":"US","CLASSIFICATION_TYPE":"U","INCLINATION":"53.2153","EPOCH":"2023-05-08T20:18:18.233568","OBJECT_TYPE":"PAYLOAD","BSTAR":"0.00006646300000","ECCENTRICITY":"0.00012910","RA_OF_ASC_NODE":"169.2106","OBJECT_NAME":"STARLINK-3812","MEAN_MOTION_DDOT":"0.0000000000000","DECAY_DATE":null,"APOAPSIS":"540.639","REF_FRAME":"TEME","RCS_SIZE":"LARGE","PERIOD":"95.438","PERIAPSIS":"538.853","TLE_LINE1":"1 52346U 22045R   23128.84604437  .00000770  00000-0  66463-4 0  9998","GP_ID":"231475692","REV_AT_EPOCH":"5940","OBJECT_ID":"2022-045R","SITE":"AFETR","ARG_OF_PERICENTER":"95.9749","MEAN_MOTION":"15.08839682","NORAD_CAT_ID":"52346"},{"OBJECT_TYPE":"PAYLOAD","EPOCH":"2023-05-08T12:37:16.558176","INCLINATION":"53.2156","SEMIMAJOR_AXIS":"6917.866","CLASSIFICATION_TYPE":"U","COUNTRY_CODE":"US","EPHEMERIS_TYPE":"0","CENTER_NAME":"EARTH","FILE":"3904305","MEAN_MOTION_DOT":"0.00002724","MEAN_ANOMALY":"281.7474","LAUNCH_DATE":"2022-04-29","MEAN_ELEMENT_THEORY":"SGP4","ELEMENT_SET_NO":"999","TIME_SYSTEM":"UTC","TLE_LINE2":"2 52347  53.2156 170.6470 0001554  78.3693 281.7474 15.08844780 59351","SITE":"AFETR","ARG_OF_PERICENTER":"78.3693","NORAD_CAT_ID":"52347","MEAN_MOTION":"15.08844780","REV_AT_EPOCH":"5935","OBJECT_ID":"2022-045S","RCS_SIZE":"LARGE","PERIOD":"95.437","REF_FRAME":"TEME","PERIAPSIS":"538.656","TLE_LINE1":"1 52347U 22045S   23128.52588609  .00002724  00000-0  18918-3 0  9998","GP_ID":"231474444","DECAY_DATE":null,"APOAPSIS":"540.806","MEAN_MOTION_DDOT":"0.0000000000000","RA_OF_ASC_NODE":"170.6470","OBJECT_NAME":"STARLINK-3826","BSTAR":"0.00018918000000","ECCENTRICITY":"0.00015540"},{"FILE":"3904305","MEAN_MOTION_DOT":"0.00000274","LAUNCH_DATE":"2022-04-29","MEAN_ELEMENT_THEORY":"SGP4","TIME_SYSTEM":"UTC","ELEMENT_SET_NO":"999","MEAN_ANOMALY":"274.9107","TLE_LINE2":"2 52348  53.2170 169.2419 0001049  85.2005 274.9107 15.08843768 59406","OBJECT_TYPE":"PAYLOAD","INCLINATION":"53.2170","EPOCH":"2023-05-08T20:06:19.351008","SEMIMAJOR_AXIS":"6917.869","COUNTRY_CODE":"US","CLASSIFICATION_TYPE":"U","EPHEMERIS_TYPE":"0","CENTER_NAME":"EARTH","MEAN_MOTION_DDOT":"0.0000000000000","RA_OF_ASC_NODE":"169.2419","OBJECT_NAME":"STARLINK-3829","BSTAR":"0.00003529900000","ECCENTRICITY":"0.00010490","SITE":"AFETR","ARG_OF_PERICENTER":"85.2005","MEAN_MOTION":"15.08843768","NORAD_CAT_ID":"52348","REV_AT_EPOCH":"5940","OBJECT_ID":"2022-045T","REF_FRAME":"TEME","RCS_SIZE":"LARGE","PERIOD":"95.437","PERIAPSIS":"539.008","TLE_LINE1":"1 52348U 22045T   23128.83772397  .00000274  00000-0  35299-4 0  9992","GP_ID":"231474689","DECAY_DATE":null,"APOAPSIS":"540.460"},{"TLE_LINE1":"1 52349U 22045U   23128.84876560  .00001221  00000-0  94767-4 0  9999","GP_ID":"231475445","PERIAPSIS":"538.976","REF_FRAME":"TEME","PERIOD":"95.437","RCS_SIZE":"LARGE","APOAPSIS":"540.502","DECAY_DATE":null,"MEAN_MOTION":"15.08842231","NORAD_CAT_ID":"52349","ARG_OF_PERICENTER":"76.2257","SITE":"AFETR","OBJECT_ID":"2022-045U","REV_AT_EPOCH":"5940","OBJECT_NAME":"STARLINK-3819","RA_OF_ASC_NODE":"169.1913","ECCENTRICITY":"0.00011030","BSTAR":"0.00009476700000","MEAN_MOTION_DDOT":"0.0000000000000","COUNTRY_CODE":"US","CLASSIFICATION_TYPE":"U","SEMIMAJOR_AXIS":"6917.874","CENTER_NAME":"EARTH","EPHEMERIS_TYPE":"0","OBJECT_TYPE":"PAYLOAD","EPOCH":"2023-05-08T20:22:13.347840","INCLINATION":"53.2157","TIME_SYSTEM":"UTC","LAUNCH_DATE":"2022-04-29","MEAN_ANOMALY":"283.8858","MEAN_ELEMENT_THEORY":"SGP4","ELEMENT_SET_NO":"999","TLE_LINE2":"2 52349  53.2157 169.1913 0001103  76.2257 283.8858 15.08842231 59406","MEAN_MOTION_DOT":"0.00001221","FILE":"3904305"},{"TLE_LINE2":"2 52350  53.2170 169.2594 0001374  88.1552 271.9597 15.08842334 59401","TIME_SYSTEM":"UTC","LAUNCH_DATE":"2022-04-29","ELEMENT_SET_NO":"999","MEAN_ELEMENT_THEORY":"SGP4","MEAN_ANOMALY":"271.9597","FILE":"3904305","MEAN_MOTION_DOT":"-0.00000125","EPHEMERIS_TYPE":"0","CENTER_NAME":"EARTH","SEMIMAJOR_AXIS":"6917.873","CLASSIFICATION_TYPE":"U","COUNTRY_CODE":"US","EPOCH":"2023-05-08T20:01:01.652160","INCLINATION":"53.2170","OBJECT_TYPE":"PAYLOAD","BSTAR":"0.00001025600000","ECCENTRICITY":"0.00013740","RA_OF_ASC_NODE":"169.2594","OBJECT_NAME":"STARLINK-3754","MEAN_MOTION_DDOT":"0.0000000000000","DECAY_DATE":null,"APOAPSIS":"540.689","PERIOD":"95.437","RCS_SIZE":"LARGE","REF_FRAME":"TEME","TLE_LINE1":"1 52350U 22045V   23128.83404690 -.00000125  00000-0  10256-4 0  9995","GP_ID":"231476193","PERIAPSIS":"538.788","REV_AT_EPOCH":"5940","OBJECT_ID":"2022-045V","ARG_OF_PERICENTER":"88.1552","SITE":"AFETR","NORAD_CAT_ID":"52350","MEAN_MOTION":"15.08842334"},{"GP_ID":"231474945","TLE_LINE1":"1 52352U 22045X   23128.82301035 -.00000071  00000-0  13625-4 0  9998","PERIAPSIS":"538.948","REF_FRAME":"TEME","RCS_SIZE":"LARGE","PERIOD":"95.438","APOAPSIS":"540.563","DECAY_DATE":null,"MEAN_MOTION":"15.08836793","NORAD_CAT_ID":"52352","ARG_OF_PERICENTER":"85.2070","SITE":"AFETR","OBJECT_ID":"2022-045X","REV_AT_EPOCH":"5940","OBJECT_NAME":"STARLINK-3838","RA_OF_ASC_NODE":"169.3081","ECCENTRICITY":"0.00011670","BSTAR":"0.00001362500000","MEAN_MOTION_DDOT":"0.0000000000000","COUNTRY_CODE":"US","CLASSIFICATION_TYPE":"U","SEMIMAJOR_AXIS":"6917.890","CENTER_NAME":"EARTH","EPHEMERIS_TYPE":"0","OBJECT_TYPE":"PAYLOAD","INCLINATION":"53.2165","EPOCH":"2023-05-08T19:45:08.094240","LAUNCH_DATE":"2022-04-29","TIME_SYSTEM":"UTC","MEAN_ELEMENT_THEORY":"SGP4","MEAN_ANOMALY":"274.9055","ELEMENT_SET_NO":"999","TLE_LINE2":"2 52352  53.2165 169.3081 0001167  85.2070 274.9055 15.08836793 59406","MEAN_MOTION_DOT":"-0.00000071","FILE":"3904305"},{"ECCENTRICITY":"0.00013630","BSTAR":"0.00000393540000","OBJECT_NAME":"STARLINK-3807","RA_OF_ASC_NODE":"169.2753","MEAN_MOTION_DDOT":"0.0000000000000","APOAPSIS":"540.685","DECAY_DATE":null,"GP_ID":"231475189","TLE_LINE1":"1 52353U 22045Y   23128.83036711 -.00000225  00000-0  39354-5 0  9995","PERIAPSIS":"538.799","RCS_SIZE":"LARGE","PERIOD":"95.437","REF_FRAME":"TEME","OBJECT_ID":"2022-045Y","REV_AT_EPOCH":"5940","NORAD_CAT_ID":"52353","MEAN_MOTION":"15.08841106","SITE":"AFETR","ARG_OF_PERICENTER":"87.7678","TLE_LINE2":"2 52353  53.2157 169.2753 0001363  87.7678 272.3470 15.08841106 59409","TIME_SYSTEM":"UTC","LAUNCH_DATE":"2022-04-29","MEAN_ELEMENT_THEORY":"SGP4","ELEMENT_SET_NO":"999","MEAN_ANOMALY":"272.3470","MEAN_MOTION_DOT":"-0.00000225","FILE":"3904305","CENTER_NAME":"EARTH","EPHEMERIS_TYPE":"0","CLASSIFICATION_TYPE":"U","COUNTRY_CODE":"US","SEMIMAJOR_AXIS":"6917.877","EPOCH":"2023-05-08T19:55:43.718304","INCLINATION":"53.2157","OBJECT_TYPE":"PAYLOAD"},{"MEAN_MOTION_DDOT":"0.0000000000000","OBJECT_NAME":"STARLINK-3876","RA_OF_ASC_NODE":"169.3555","ECCENTRICITY":"0.00013170","BSTAR":"-0.00000332230000","NORAD_CAT_ID":"52354","MEAN_MOTION":"15.08836495","SITE":"AFETR","ARG_OF_PERICENTER":"113.5770","OBJECT_ID":"2022-045Z","REV_AT_EPOCH":"5940","TLE_LINE1":"1 52354U 22045Z   23128.81196569 -.00000341  00000-0 -33223-5 0  9991","PERIAPSIS":"538.845","GP_ID":"231475946","PERIOD":"95.438","RCS_SIZE":"LARGE","REF_FRAME":"TEME","APOAPSIS":"540.667","DECAY_DATE":null,"MEAN_MOTION_DOT":"-0.00000341","FILE":"3904305","MEAN_ANOMALY":"246.5361","LAUNCH_DATE":"2022-04-29","TIME_SYSTEM":"UTC","MEAN_ELEMENT_THEORY":"SGP4","ELEMENT_SET_NO":"999","TLE_LINE2":"2 52354  53.2162 169.3555 0001317 113.5770 246.5361 15.08836495 59404","OBJECT_TYPE":"PAYLOAD","EPOCH":"2023-05-08T19:29:13.835616","INCLINATION":"53.2162","CLASSIFICATION_TYPE":"U","COUNTRY_CODE":"US","SEMIMAJOR_AXIS":"6917.891","CENTER_NAME":"EARTH","EPHEMERIS_TYPE":"0"}];
